[{"OBJECT_NAME":"STARLINK-2377","OBJECT_ID":"2021-018L","EPOCH":"2026-03-09T17:36:08.477280","MEAN_MOTION":15.29354486,"ECCENTRICITY":0.00011714,"INCLINATION":53.1565,"RA_OF_ASC_NODE":254.8446,"ARG_OF_PERICENTER":128.8916,"MEAN_ANOMALY":231.2189,"EPHEMERIS_TYPE":0,"CLASSIFICATION_TYPE":"U","NORAD_CAT_ID":47797,"ELEMENT_SET_NO":999,"REV_AT_EPOCH":27655,"BSTAR":7.1115072e-5,"MEAN_MOTION_DOT":1.697e-5,"MEAN_MOTION_DDOT":0},{"OBJECT_NAME":"PEGASUS DEB","OBJECT_ID":"1994-029AG","EPOCH":"2026-03-09T11:16:42.963744","MEAN_MOTION":15.37636263,"ECCENTRICITY":0.0031206,"INCLINATION":82.0362,"RA_OF_ASC_NODE":86.2933,"ARG_OF_PERICENTER":155.6019,"MEAN_ANOMALY":204.671,"EPHEMERIS_TYPE":0,"CLASSIFICATION_TYPE":"U","NORAD_CAT_ID":23986,"ELEMENT_SET_NO":999,"REV_AT_EPOCH":61542,"BSTAR":0.00061808813,"MEAN_MOTION_DOT":0.00023279,"MEAN_MOTION_DDOT":0}]
